{"type": "FeatureCollection", "features": [ {"type": "Feature", "properties": {"norad_id": 41019, "name": "GPS BIIF-11 (PRN 10)", "group": "gnss", "lat": -7.144231044804929, "lon": 33.53306451562325, "alt_km": 20335.58878187828, "timestamp": "2025-12-07T07:31:36.541855+00:00", "meta": {"OBJECT_NAME": "GPS BIIF-11 (PRN 10)", "OBJECT_ID": "2015-062A", "EPOCH": "2025-12-06T07:52:58.423872", "MEAN_MOTION": 2.0056703, "ECCENTRICITY": 0.01106332, "INCLINATION": 56.8275, "RA_OF_ASC_NODE": 38.2504, "ARG_OF_PERICENTER": 229.7544, "MEAN_ANOMALY": 129.3288, "EPHEMERIS_TYPE": 0, "CLASSIFICATION_TYPE": "U", "NORAD_CAT_ID": 41019, "ELEMENT_SET_NO": 999, "REV_AT_EPOCH": 7396, "BSTAR": 0, "MEAN_MOTION_DOT": -6.9e-07, "MEAN_MOTION_DDOT": 0}, "tle": {"line1": "1 41019U 15062A   25340.32845398 -.00000069  00000+0  00000+0 0  9999", "line2": "2 41019  56.8275  38.2504 0110633 229.7544 129.3288  2.00567030 73960"}}, "geometry": {"type": "Point", "coordinates": [33.53306451562325, -7.144231044804929]}}, {"type": "Feature", "properties": {"norad_id": 41028, "name": "GSAT-15 (GAGAN/PRN 139)", "group": "gnss", "lat": -0.025180775464266576, "lon": -77.2392703564736, "alt_km": 35777.38372037055, "timestamp": "2025-12-07T07:31:36.541868+00:00", "meta": {"OBJECT_NAME": "GSAT-15 (GAGAN/PRN 139)", "OBJECT_ID": "2015-065A", "EPOCH": "2025-12-06T21:18:38.739168", "MEAN_MOTION": 1.00271054, "ECCENTRICITY": 0.0002982, "INCLINATION": 0.0406, "RA_OF_ASC_NODE": 95.9133, "ARG_OF_PERICENTER": 141.7974, "MEAN_ANOMALY": 251.3751, "EPHEMERIS_TYPE": 0, "CLASSIFICATION_TYPE": "U", "NORAD_CAT_ID": 41028, "ELEMENT_SET_NO": 999, "REV_AT_EPOCH": 3687, "BSTAR": 0, "MEAN_MOTION_DOT": -2.52e-06, "MEAN_MOTION_DDOT": 0}, "tle": {"line1": "1 41028U 15065A   25340.88794837 -.00000252  00000+0  00000+0 0  9998", "line2": "2 41028   0.0406  95.9133 0002982 141.7974 251.3751  1.00271054 36879"}}, "geometry": {"type": "Point", "coordinates": [-77.2392703564736, -0.025180775464266576]}}, {"type": "Feature", "properties": {"norad_id": 41174, "name": "GSAT0209 (GALILEO 12)", "group": "gnss", "lat": 41.866632945580605, "lon": 144.1742378786253, "alt_km": 23213.255120476522, "timestamp": "2025-12-07T07:31:36.541893+00:00", "meta": {"OBJECT_NAME": "GSAT0209 (GALILEO 12)", "OBJECT_ID": "2015-079A", "EPOCH": "2025-12-01T22:43:10.411392", "MEAN_MOTION": 1.70474306, "ECCENTRICITY": 0.0002352, "INCLINATION": 55.7062, "RA_OF_ASC_NODE": 106.6773, "ARG_OF_PERICENTER": 357.4206, "MEAN_ANOMALY": 2.5431, "EPHEMERIS_TYPE": 0, "CLASSIFICATION_TYPE": "U", "NORAD_CAT_ID": 41174, "ELEMENT_SET_NO": 999, "REV_AT_EPOCH": 6141, "BSTAR": 0, "MEAN_MOTION_DOT": 3.5e-07, "MEAN_MOTION_DDOT": 0}, "tle": {"line1": "1 41174U 15079A   25335.94664828  .00000035  00000+0  00000+0 0  9990", "line2": "2 41174  55.7062 106.6773 0002352 357.4206   2.5431  1.70474306 61412"}}, "geometry": {"type": "Point", "coordinates": [144.1742378786253, 41.866632945580605]}}, {"type": "Feature", "properties": {"norad_id": 41175, "name": "GSAT0208 (GALILEO 11)", "group": "gnss", "lat": -54.75446040556526, "lon": 31.7616255182638, "alt_km": 23227.908491222763, "timestamp": "2025-12-07T07:31:36.541907+00:00", "meta": {"OBJECT_NAME": "GSAT0208 (GALILEO 11)", "OBJECT_ID": "2015-079B", "EPOCH": "2025-12-05T16:28:14.683584", "MEAN_MOTION": 1.70474159, "ECCENTRICITY": 0.00019173, "INCLINATION": 55.707, "RA_OF_ASC_NODE": 106.5718, "ARG_OF_PERICENTER": 7.3332, "MEAN_ANOMALY": 352.6208, "EPHEMERIS_TYPE": 0, "CLASSIFICATION_TYPE": "U", "NORAD_CAT_ID": 41175, "ELEMENT_SET_NO": 999, "REV_AT_EPOCH": 6189, "BSTAR": 0, "MEAN_MOTION_DOT": 8e-08, "MEAN_MOTION_DDOT": 0}, "tle": {"line1": "1 41175U 15079B   25339.68628106  .00000008  00000+0  00000+0 0  9995", "line2": "2 41175  55.7070 106.5718 0001917   7.3332 352.6208  1.70474159 61896"}}, "geometry": {"type": "Point", "coordinates": [31.7616255182638, -54.75446040556526]}}, {"type": "Feature", "properties": {"norad_id": 41241, "name": "IRNSS-1E", "group": "gnss", "lat": -27.606354191270942, "lon": -63.360912701949545, "alt_km": 35730.970907759904, "timestamp": "2025-12-07T07:31:36.541921+00:00", "meta": {"OBJECT_NAME": "IRNSS-1E", "OBJECT_ID": "2016-003A", "EPOCH": "2025-12-06T15:54:27.343008", "MEAN_MOTION": 1.00276405, "ECCENTRICITY": 0.00218909, "INCLINATION": 32.8123, "RA_OF_ASC_NODE": 62.5421, "ARG_OF_PERICENTER": 186.8632, "MEAN_ANOMALY": 176.6639, "EPHEMERIS_TYPE": 0, "CLASSIFICATION_TYPE": "U", "NORAD_CAT_ID": 41241, "ELEMENT_SET_NO": 999, "REV_AT_EPOCH": 3615, "BSTAR": 0, "MEAN_MOTION_DOT": -3.14e-06, "MEAN_MOTION_DDOT": 0}, "tle": {"line1": "1 41241U 16003A   25340.66281647 -.00000314  00000+0  00000+0 0  9993", "line2": "2 41241  32.8123  62.5421 0021890 186.8632 176.6639  1.00276405 36155"}}, "geometry": {"type": "Point", "coordinates": [-63.360912701949545, -27.606354191270942]}}, {"type": "Feature", "properties": {"norad_id": 41328, "name": "GPS BIIF-12 (PRN 32)", "group": "gnss", "lat": -49.892897533772214, "lon": 42.128497368639586, "alt_km": 20024.9890942532, "timestamp": "2025-12-07T07:31:36.541967+00:00", "meta": {"OBJECT_NAME": "GPS BIIF-12 (PRN 32)", "OBJECT_ID": "2016-007A", "EPOCH": "2025-12-05T09:55:37.612128", "MEAN_MOTION": 2.00560998, "ECCENTRICITY": 0.00917952, "INCLINATION": 55.402, "RA_OF_ASC_NODE": 97.1478, "ARG_OF_PERICENTER": 243.3887, "MEAN_ANOMALY": 115.6411, "EPHEMERIS_TYPE": 0, "CLASSIFICATION_TYPE": "U", "NORAD_CAT_ID": 41328, "ELEMENT_SET_NO": 999, "REV_AT_EPOCH": 7195, "BSTAR": 0, "MEAN_MOTION_DOT": -1.1e-07, "MEAN_MOTION_DDOT": 0}, "tle": {"line1": "1 41328U 16007A   25339.41362977 -.00000011  00000+0  00000+0 0  9994", "line2": "2 41328  55.4020  97.1478 0091795 243.3887 115.6411  2.00560998 71958"}}, "geometry": {"type": "Point", "coordinates": [42.128497368639586, -49.892897533772214]}}, {"type": "Feature", "properties": {"norad_id": 41330, "name": "COSMOS 2514 (751)", "group": "gnss", "lat": -30.25826405071226, "lon": -56.11529280641237, "alt_km": 19142.711560329113, "timestamp": "2025-12-07T07:31:36.541981+00:00", "meta": {"OBJECT_NAME": "COSMOS 2514 (751)", "OBJECT_ID": "2016-008A", "EPOCH": "2025-12-06T21:19:17.818752", "MEAN_MOTION": 2.13102518, "ECCENTRICITY": 0.00123323, "INCLINATION": 65.1372, "RA_OF_ASC_NODE": 319.6044, "ARG_OF_PERICENTER": 219.9906, "MEAN_ANOMALY": 139.9121, "EPHEMERIS_TYPE": 0, "CLASSIFICATION_TYPE": "U", "NORAD_CAT_ID": 41330, "ELEMENT_SET_NO": 999, "REV_AT_EPOCH": 7652, "BSTAR": 0, "MEAN_MOTION_DOT": -4.9e-07, "MEAN_MOTION_DDOT": 0}, "tle": {"line1": "1 41330U 16008A   25340.88840068 -.00000049  00000+0  00000+0 0  9994", "line2": "2 41330  65.1372 319.6044 0012332 219.9906 139.9121  2.13102518 76520"}}, "geometry": {"type": "Point", "coordinates": [-56.11529280641237, -30.25826405071226]}}, {"type": "Feature", "properties": {"norad_id": 41384, "name": "IRNSS-1F", "group": "gnss", "lat": 4.193923570125014, "lon": -138.52479966229302, "alt_km": 35738.18305241292, "timestamp": "2025-12-07T07:31:36.541998+00:00", "meta": {"OBJECT_NAME": "IRNSS-1F", "OBJECT_ID": "2016-015A", "EPOCH": "2025-12-06T13:49:11.191872", "MEAN_MOTION": 1.00269273, "ECCENTRICITY": 0.00224242, "INCLINATION": 4.865, "RA_OF_ASC_NODE": 101.4524, "ARG_OF_PERICENTER": 179.8688, "MEAN_ANOMALY": 33.9594, "EPHEMERIS_TYPE": 0, "CLASSIFICATION_TYPE": "U", "NORAD_CAT_ID": 41384, "ELEMENT_SET_NO": 999, "REV_AT_EPOCH": 3573, "BSTAR": 0, "MEAN_MOTION_DOT": 1.63e-06, "MEAN_MOTION_DDOT": 0}, "tle": {"line1": "1 41384U 16015A   25340.57582398  .00000163  00000+0  00000+0 0  9992", "line2": "2 41384   4.8650 101.4524 0022424 179.8688  33.9594  1.00269273 35734"}}, "geometry": {"type": "Point", "coordinates": [-138.52479966229302, 4.193923570125014]}}, {"type": "Feature", "properties": {"norad_id": 41434, "name": "BEIDOU-2 IGSO-6 (C13)", "group": "gnss", "lat": -49.18411120996162, "lon": -98.00461941002742, "alt_km": 35549.724843893724, "timestamp": "2025-12-07T07:31:36.542012+00:00", "meta": {"OBJECT_NAME": "BEIDOU-2 IGSO-6 (C13)", "OBJECT_ID": "2016-021A", "EPOCH": "2025-12-01T15:57:35.287200", "MEAN_MOTION": 1.00256562, "ECCENTRICITY": 0.00591323, "INCLINATION": 59.9483, "RA_OF_ASC_NODE": 40.0119, "ARG_OF_PERICENTER": 231.2834, "MEAN_ANOMALY": 130.8807, "EPHEMERIS_TYPE": 0, "CLASSIFICATION_TYPE": "U", "NORAD_CAT_ID": 41434, "ELEMENT_SET_NO": 999, "REV_AT_EPOCH": 3550, "BSTAR": 0, "MEAN_MOTION_DOT": -1.55e-06, "MEAN_MOTION_DDOT": 0}, "tle": {"line1": "1 41434U 16021A   25335.66499175 -.00000155  00000+0  00000+0 0  9991", "line2": "2 41434  59.9483  40.0119 0059132 231.2834 130.8807  1.00256562 35501"}}, "geometry": {"type": "Point", "coordinates": [-98.00461941002742, -49.18411120996162]}}, {"type": "Feature", "properties": {"norad_id": 41469, "name": "IRNSS-1G", "group": "gnss", "lat": -2.8079187203992584, "lon": -41.51015340658407, "alt_km": 35801.99127200118, "timestamp": "2025-12-07T07:31:36.542026+00:00", "meta": {"OBJECT_NAME": "IRNSS-1G", "OBJECT_ID": "2016-027A", "EPOCH": "2025-12-06T19:25:01.138080", "MEAN_MOTION": 1.00252204, "ECCENTRICITY": 0.00046385, "INCLINATION": 4.7183, "RA_OF_ASC_NODE": 102.2521, "ARG_OF_PERICENTER": 336.8452, "MEAN_ANOMALY": 57.4213, "EPHEMERIS_TYPE": 0, "CLASSIFICATION_TYPE": "U", "NORAD_CAT_ID": 41469, "ELEMENT_SET_NO": 999, "REV_AT_EPOCH": 3525, "BSTAR": 0, "MEAN_MOTION_DOT": -3.32e-06, "MEAN_MOTION_DDOT": 0}, "tle": {"line1": "1 41469U 16027A   25340.80904095 -.00000332  00000+0  00000+0 0  9996", "line2": "2 41469   4.7183 102.2521 0004638 336.8452  57.4213  1.00252204 35257"}}, "geometry": {"type": "Point", "coordinates": [-41.51015340658407, -2.8079187203992584]}}]}